[
    {
        "Altitude(m)": 715644.0553135838,
        "Argument of Periapsis(deg)": 0.0011390121186627068,
        "Eccentricity": 0.0,
        "Inclination(deg)": 45.0,
        "Latitude(deg)": -39.75032451450223,
        "Longitude(deg)": 24.13414244988857,
        "Mean Anomaly(deg)": -64.30117833525188,
        "RAAN(deg)": 179.9989248058542,
        "Satellite Name": "Constellation 1 810",
        "Satellite Number": 810,
        "Semi-Major Axis(m)": 7083131.272910544,
        "Time(s)": 19
    },
    {
        "Altitude(m)": 715634.0561546623,
        "Argument of Periapsis(deg)": 0.0011989601249081123,
        "Eccentricity": 0.0,
        "Inclination(deg)": 45.0,
        "Latitude(deg)": -39.7261776068266,
        "Longitude(deg)": 24.20213187315051,
        "Mean Anomaly(deg)": -64.24047719500201,
        "RAAN(deg)": 179.99886821668858,
        "Satellite Name": "Constellation 1 810",
        "Satellite Number": 810,
        "Semi-Major Axis(m)": 7083131.272910544,
        "Time(s)": 20
    },
    {
        "Altitude(m)": 715624.0388346164,
        "Argument of Periapsis(deg)": 0.001258908131153518,
        "Eccentricity": 0.0,
        "Inclination(deg)": 45.0,
        "Latitude(deg)": -39.70198583681896,
        "Longitude(deg)": 24.270071102848608,
        "Mean Anomaly(deg)": -64.17977605475205,
        "RAAN(deg)": 179.99881162752303,
        "Satellite Name": "Constellation 1 810",
        "Satellite Number": 810,
        "Semi-Major Axis(m)": 7083131.272910544,
        "Time(s)": 21
    },
    {
        "Altitude(m)": 715614.0033899545,
        "Argument of Periapsis(deg)": 0.0013188561373989236,
        "Eccentricity": 0.0,
        "Inclination(deg)": 45.0,
        "Latitude(deg)": -39.677749273171884,
        "Longitude(deg)": 24.337959956224307,
        "Mean Anomaly(deg)": -64.11907491450222,
        "RAAN(deg)": 179.99875503835747,
        "Satellite Name": "Constellation 1 810",
        "Satellite Number": 810,
        "Semi-Major Axis(m)": 7083131.272910544,
        "Time(s)": 22
    },
    {
        "Altitude(m)": 715603.949857238,
        "Argument of Periapsis(deg)": 0.0013788041436443293,
        "Eccentricity": 0.0,
        "Inclination(deg)": 45.0,
        "Latitude(deg)": -39.65346798457698,
        "Longitude(deg)": 24.405798755242216,
        "Mean Anomaly(deg)": -64.05837377425225,
        "RAAN(deg)": 179.9986984491919,
        "Satellite Name": "Constellation 1 810",
        "Satellite Number": 810,
        "Semi-Major Axis(m)": 7083131.272910544,
        "Time(s)": 23
    },
    {
        "Altitude(m)": 715593.8782730965,
        "Argument of Periapsis(deg)": 0.001438752149889735,
        "Eccentricity": 0.0,
        "Inclination(deg)": 45.0,
        "Latitude(deg)": -39.6291420397263,
        "Longitude(deg)": 24.473587318005862,
        "Mean Anomaly(deg)": -63.9976726340024,
        "RAAN(deg)": 179.99864186002634,
        "Satellite Name": "Constellation 1 810",
        "Satellite Number": 810,
        "Semi-Major Axis(m)": 7083131.272910544,
        "Time(s)": 24
    },
    {
        "Altitude(m)": 715583.7886742213,
        "Argument of Periapsis(deg)": 0.0014987001561351404,
        "Eccentricity": 0.0,
        "Inclination(deg)": 45.0,
        "Latitude(deg)": -39.60477150731031,
        "Longitude(deg)": 24.541325631145344,
        "Mean Anomaly(deg)": -63.93697149375254,
        "RAAN(deg)": 179.99858527086076,
        "Satellite Name": "Constellation 1 810",
        "Satellite Number": 810,
        "Semi-Major Axis(m)": 7083131.272910544,
        "Time(s)": 25
    },
    {
        "Altitude(m)": 715573.6810973751,
        "Argument of Periapsis(deg)": 0.001558648162380546,
        "Eccentricity": 0.0,
        "Inclination(deg)": 45.0,
        "Latitude(deg)": -39.5803564560177,
        "Longitude(deg)": 24.609013681718277,
        "Mean Anomaly(deg)": -63.876270353502676,
        "RAAN(deg)": 179.99852868169518,
        "Satellite Name": "Constellation 1 810",
        "Satellite Number": 810,
        "Semi-Major Axis(m)": 7083131.272910544,
        "Time(s)": 26
    },
    {
        "Altitude(m)": 715563.5555793733,
        "Argument of Periapsis(deg)": 0.0016185961686259519,
        "Eccentricity": 0.0,
        "Inclination(deg)": 45.0,
        "Latitude(deg)": -39.555896954534866,
        "Longitude(deg)": 24.676651457208727,
        "Mean Anomaly(deg)": -63.815569213252715,
        "RAAN(deg)": 179.99847209252962,
        "Satellite Name": "Constellation 1 810",
        "Satellite Number": 810,
        "Semi-Major Axis(m)": 7083131.272910544,
        "Time(s)": 27
    },
    {
        "Altitude(m)": 715553.4121570932,
        "Argument of Periapsis(deg)": 0.0016785441748713573,
        "Eccentricity": 0.0,
        "Inclination(deg)": 45.0,
        "Latitude(deg)": -39.53139307154538,
        "Longitude(deg)": 24.744238945525428,
        "Mean Anomaly(deg)": -63.75486807300283,
        "RAAN(deg)": 179.99841550336404,
        "Satellite Name": "Constellation 1 810",
        "Satellite Number": 810,
        "Semi-Major Axis(m)": 7083131.272910544,
        "Time(s)": 28
    },
    {
        "Altitude(m)": 715543.2508674838,
        "Argument of Periapsis(deg)": 0.001738492181116763,
        "Eccentricity": 0.0,
        "Inclination(deg)": 45.0,
        "Latitude(deg)": -39.50684487572915,
        "Longitude(deg)": 24.811776135001185,
        "Mean Anomaly(deg)": -63.6941669327529,
        "RAAN(deg)": 179.9983589141985,
        "Satellite Name": "Constellation 1 810",
        "Satellite Number": 810,
        "Semi-Major Axis(m)": 7083131.272910544,
        "Time(s)": 29
    },
    {
        "Altitude(m)": 715533.0717475519,
        "Argument of Periapsis(deg)": 0.0017984401873621684,
        "Eccentricity": 0.0,
        "Inclination(deg)": 45.0,
        "Latitude(deg)": -39.4822524357625,
        "Longitude(deg)": 24.879262846293592,
        "Mean Anomaly(deg)": -63.63346579250303,
        "RAAN(deg)": 179.9983023250329,
        "Satellite Name": "Constellation 1 810",
        "Satellite Number": 810,
        "Semi-Major Axis(m)": 7083131.272910544,
        "Time(s)": 30
    },
    {
        "Altitude(m)": 715522.8748343603,
        "Argument of Periapsis(deg)": 0.0018583881936075745,
        "Eccentricity": 0.0,
        "Inclination(deg)": 45.0,
        "Latitude(deg)": -39.457615820316065,
        "Longitude(deg)": 24.946699404772623,
        "Mean Anomaly(deg)": -63.57276465225307,
        "RAAN(deg)": 179.99824573586733,
        "Satellite Name": "Constellation 1 810",
        "Satellite Number": 810,
        "Semi-Major Axis(m)": 7083131.272910544,
        "Time(s)": 31
    },
    {
        "Altitude(m)": 715512.6601650484,
        "Argument of Periapsis(deg)": 0.0019183361998529795,
        "Eccentricity": 0.0,
        "Inclination(deg)": 45.0,
        "Latitude(deg)": -39.43293509805634,
        "Longitude(deg)": 25.01408563193629,
        "Mean Anomaly(deg)": -63.51206351200321,
        "RAAN(deg)": 179.99818914670178,
        "Satellite Name": "Constellation 1 810",
        "Satellite Number": 810,
        "Semi-Major Axis(m)": 7083131.272910544,
        "Time(s)": 32
    },
    {
        "Altitude(m)": 715502.4277768043,
        "Argument of Periapsis(deg)": 0.0019782842060983856,
        "Eccentricity": 0.0,
        "Inclination(deg)": 45.0,
        "Latitude(deg)": -39.408210337643645,
        "Longitude(deg)": 25.0814215177981,
        "Mean Anomaly(deg)": -63.451362371753376,
        "RAAN(deg)": 179.99813255753622,
        "Satellite Name": "Constellation 1 810",
        "Satellite Number": 810,
        "Semi-Major Axis(m)": 7083131.272910544,
        "Time(s)": 33
    },
    {
        "Altitude(m)": 715492.1777068822,
        "Argument of Periapsis(deg)": 0.0020382322123437906,
        "Eccentricity": 0.0,
        "Inclination(deg)": 45.0,
        "Latitude(deg)": -39.38344160773198,
        "Longitude(deg)": 25.148707052788303,
        "Mean Anomaly(deg)": -63.39066123150339,
        "RAAN(deg)": 179.9980759683706,
        "Satellite Name": "Constellation 1 810",
        "Satellite Number": 810,
        "Semi-Major Axis(m)": 7083131.272910544,
        "Time(s)": 34
    },
    {
        "Altitude(m)": 715481.9099926078,
        "Argument of Periapsis(deg)": 0.002098180218589197,
        "Eccentricity": 0.0,
        "Inclination(deg)": 45.0,
        "Latitude(deg)": -39.358628976968596,
        "Longitude(deg)": 25.21594222775212,
        "Mean Anomaly(deg)": -63.329960091253554,
        "RAAN(deg)": 179.99801937920506,
        "Satellite Name": "Constellation 1 810",
        "Satellite Number": 810,
        "Semi-Major Axis(m)": 7083131.272910544,
        "Time(s)": 35
    },
    {
        "Altitude(m)": 715471.6246713483,
        "Argument of Periapsis(deg)": 0.002158128224834602,
        "Eccentricity": 0.0,
        "Inclination(deg)": 45.0,
        "Latitude(deg)": -39.33377251399317,
        "Longitude(deg)": 25.283127033949242,
        "Mean Anomaly(deg)": -63.26925895100366,
        "RAAN(deg)": 179.99796279003948,
        "Satellite Name": "Constellation 1 810",
        "Satellite Number": 810,
        "Semi-Major Axis(m)": 7083131.272910544,
        "Time(s)": 36
    },
    {
        "Altitude(m)": 715461.3217805505,
        "Argument of Periapsis(deg)": 0.002218076231080008,
        "Eccentricity": 0.0,
        "Inclination(deg)": 45.0,
        "Latitude(deg)": -39.30887228743776,
        "Longitude(deg)": 25.350261294954905,
        "Mean Anomaly(deg)": -63.208557810753696,
        "RAAN(deg)": 179.99790620087393,
        "Satellite Name": "Constellation 1 810",
        "Satellite Number": 810,
        "Semi-Major Axis(m)": 7083131.272910544,
        "Time(s)": 37
    }
]